[{"OBJECT_NAME":"STARLINK-30950","OBJECT_ID":"2023-183D","EPOCH":"2025-12-18T05:18:54.085248","MEAN_MOTION":15.27580134,"ECCENTRICITY":0.00011673,"INCLINATION":43.0021,"RA_OF_ASC_NODE":305.2195,"ARG_OF_PERICENTER":288.958,"MEAN_ANOMALY":71.1146,"EPHEMERIS_TYPE":0,"CLASSIFICATION_TYPE":"U","NORAD_CAT_ID":58440,"ELEMENT_SET_NO":999,"REV_AT_EPOCH":11657,"BSTAR":-1.9136412e-5,"MEAN_MOTION_DOT":-7.89e-6,"MEAN_MOTION_DDOT":0},{"OBJECT_NAME":"STARLINK-30942","OBJECT_ID":"2023-183E","EPOCH":"2025-12-18T02:31:53.619744","MEAN_MOTION":15.0253855,"ECCENTRICITY":0.00016561,"INCLINATION":43.0042,"RA_OF_ASC_NODE":126.4793,"ARG_OF_PERICENTER":272.1729,"MEAN_ANOMALY":87.8924,"EPHEMERIS_TYPE":0,"CLASSIFICATION_TYPE":"U","NORAD_CAT_ID":58441,"ELEMENT_SET_NO":999,"REV_AT_EPOCH":11444,"BSTAR":6.1981669e-5,"MEAN_MOTION_DOT":6.34e-6,"MEAN_MOTION_DDOT":0},{"OBJECT_NAME":"STARLINK-30959","OBJECT_ID":"2023-183F","EPOCH":"2025-12-18T02:22:17.736096","MEAN_MOTION":15.02537595,"ECCENTRICITY":0.00016879,"INCLINATION":43.0047,"RA_OF_ASC_NODE":126.429,"ARG_OF_PERICENTER":271.2695,"MEAN_ANOMALY":88.7954,"EPHEMERIS_TYPE":0,"CLASSIFICATION_TYPE":"U","NORAD_CAT_ID":58442,"ELEMENT_SET_NO":999,"REV_AT_EPOCH":11444,"BSTAR":4.316283e-6,"MEAN_MOTION_DOT":-1.45e-6,"MEAN_MOTION_DDOT":0},{"OBJECT_NAME":"STARLINK-30971","OBJECT_ID":"2023-183G","EPOCH":"2025-12-18T02:36:40.475520","MEAN_MOTION":15.02539557,"ECCENTRICITY":0.00013364,"INCLINATION":43.0026,"RA_OF_ASC_NODE":126.4951,"ARG_OF_PERICENTER":268.9773,"MEAN_ANOMALY":91.0917,"EPHEMERIS_TYPE":0,"CLASSIFICATION_TYPE":"U","NORAD_CAT_ID":58443,"ELEMENT_SET_NO":999,"REV_AT_EPOCH":11444,"BSTAR":4.9743715e-5,"MEAN_MOTION_DOT":4.68e-6,"MEAN_MOTION_DDOT":0},{"OBJECT_NAME":"STARLINK-30963","OBJECT_ID":"2023-183H","EPOCH":"2025-12-17T10:20:13.227360","MEAN_MOTION":15.02536199,"ECCENTRICITY":0.00013238,"INCLINATION":43.0025,"RA_OF_ASC_NODE":130.0116,"ARG_OF_PERICENTER":268.4015,"MEAN_ANOMALY":91.6676,"EPHEMERIS_TYPE":0,"CLASSIFICATION_TYPE":"U","NORAD_CAT_ID":58444,"ELEMENT_SET_NO":999,"REV_AT_EPOCH":11434,"BSTAR":1.5840655e-5,"MEAN_MOTION_DOT":1.0e-7,"MEAN_MOTION_DDOT":0},{"OBJECT_NAME":"STARLINK-30961","OBJECT_ID":"2023-183J","EPOCH":"2025-12-18T02:12:42.447744","MEAN_MOTION":15.02535176,"ECCENTRICITY":0.00014936,"INCLINATION":43.0027,"RA_OF_ASC_NODE":126.3732,"ARG_OF_PERICENTER":271.5107,"MEAN_ANOMALY":88.5565,"EPHEMERIS_TYPE":0,"CLASSIFICATION_TYPE":"U","NORAD_CAT_ID":58445,"ELEMENT_SET_NO":999,"REV_AT_EPOCH":11444,"BSTAR":-4.70143e-7,"MEAN_MOTION_DOT":-2.1e-6,"MEAN_MOTION_DDOT":0},{"OBJECT_NAME":"STARLINK-30975","OBJECT_ID":"2023-183K","EPOCH":"2025-12-17T17:47:03.690816","MEAN_MOTION":15.02539645,"ECCENTRICITY":0.00012133,"INCLINATION":43.0026,"RA_OF_ASC_NODE":128.8849,"ARG_OF_PERICENTER":268.6345,"MEAN_ANOMALY":91.4358,"EPHEMERIS_TYPE":0,"CLASSIFICATION_TYPE":"U","NORAD_CAT_ID":58446,"ELEMENT_SET_NO":999,"REV_AT_EPOCH":11440,"BSTAR":3.9664437e-5,"MEAN_MOTION_DOT":3.32e-6,"MEAN_MOTION_DDOT":0},{"OBJECT_NAME":"STARLINK-30976","OBJECT_ID":"2023-183L","EPOCH":"2025-12-18T01:58:20.335584","MEAN_MOTION":15.02530543,"ECCENTRICITY":0.00013977,"INCLINATION":43.003,"RA_OF_ASC_NODE":126.3303,"ARG_OF_PERICENTER":270.181,"MEAN_ANOMALY":89.8872,"EPHEMERIS_TYPE":0,"CLASSIFICATION_TYPE":"U","NORAD_CAT_ID":58447,"ELEMENT_SET_NO":999,"REV_AT_EPOCH":11444,"BSTAR":-4.3801604e-5,"MEAN_MOTION_DOT":-7.95e-6,"MEAN_MOTION_DDOT":0},{"OBJECT_NAME":"STARLINK-30926","OBJECT_ID":"2023-183M","EPOCH":"2025-12-17T16:19:10.431840","MEAN_MOTION":15.02532075,"ECCENTRICITY":0.00013224,"INCLINATION":43.0033,"RA_OF_ASC_NODE":128.4014,"ARG_OF_PERICENTER":274.1095,"MEAN_ANOMALY":85.9596,"EPHEMERIS_TYPE":0,"CLASSIFICATION_TYPE":"U","NORAD_CAT_ID":58448,"ELEMENT_SET_NO":999,"REV_AT_EPOCH":11438,"BSTAR":0.00010096088,"MEAN_MOTION_DOT":1.16e-5,"MEAN_MOTION_DDOT":0},{"OBJECT_NAME":"STARLINK-30943","OBJECT_ID":"2023-183N","EPOCH":"2025-12-18T06:41:37.106880","MEAN_MOTION":15.02535981,"ECCENTRICITY":0.00014936,"INCLINATION":43.003,"RA_OF_ASC_NODE":100.015,"ARG_OF_PERICENTER":274.5815,"MEAN_ANOMALY":85.4857,"EPHEMERIS_TYPE":0,"CLASSIFICATION_TYPE":"U","NORAD_CAT_ID":58449,"ELEMENT_SET_NO":999,"REV_AT_EPOCH":11476,"BSTAR":2.0161003e-5,"MEAN_MOTION_DOT":6.9e-7,"MEAN_MOTION_DDOT":0},{"OBJECT_NAME":"STARLINK-30946","OBJECT_ID":"2023-183P","EPOCH":"2025-12-17T17:35:52.228032","MEAN_MOTION":15.02556871,"ECCENTRICITY":0.00011485,"INCLINATION":43.0034,"RA_OF_ASC_NODE":128.8428,"ARG_OF_PERICENTER":260.8438,"MEAN_ANOMALY":99.2275,"EPHEMERIS_TYPE":0,"CLASSIFICATION_TYPE":"U","NORAD_CAT_ID":58450,"ELEMENT_SET_NO":999,"REV_AT_EPOCH":11438,"BSTAR":-0.00048086382,"MEAN_MOTION_DOT":-6.697e-5,"MEAN_MOTION_DDOT":0},{"OBJECT_NAME":"STARLINK-30944","OBJECT_ID":"2023-183Q","EPOCH":"2025-12-18T02:07:55.211808","MEAN_MOTION":15.02540841,"ECCENTRICITY":0.00012902,"INCLINATION":43.003,"RA_OF_ASC_NODE":126.3528,"ARG_OF_PERICENTER":272.9726,"MEAN_ANOMALY":87.0969,"EPHEMERIS_TYPE":0,"CLASSIFICATION_TYPE":"U","NORAD_CAT_ID":58451,"ELEMENT_SET_NO":999,"REV_AT_EPOCH":11441,"BSTAR":3.1751356e-5,"MEAN_MOTION_DOT":2.25e-6,"MEAN_MOTION_DDOT":0},{"OBJECT_NAME":"STARLINK-30928","OBJECT_ID":"2023-183R","EPOCH":"2025-12-18T02:03:07.382304","MEAN_MOTION":15.02535573,"ECCENTRICITY":0.00011675,"INCLINATION":43.0024,"RA_OF_ASC_NODE":126.3268,"ARG_OF_PERICENTER":271.1055,"MEAN_ANOMALY":88.9653,"EPHEMERIS_TYPE":0,"CLASSIFICATION_TYPE":"U","NORAD_CAT_ID":58452,"ELEMENT_SET_NO":999,"REV_AT_EPOCH":11444,"BSTAR":1.1426413e-5,"MEAN_MOTION_DOT":-4.9e-7,"MEAN_MOTION_DDOT":0},{"OBJECT_NAME":"STARLINK-30957","OBJECT_ID":"2023-183S","EPOCH":"2025-12-18T01:44:06.287136","MEAN_MOTION":15.02537963,"ECCENTRICITY":0.00013082,"INCLINATION":43.002,"RA_OF_ASC_NODE":127.0795,"ARG_OF_PERICENTER":273.4196,"MEAN_ANOMALY":86.6497,"EPHEMERIS_TYPE":0,"CLASSIFICATION_TYPE":"U","NORAD_CAT_ID":58453,"ELEMENT_SET_NO":999,"REV_AT_EPOCH":11443,"BSTAR":3.8379588e-5,"MEAN_MOTION_DOT":3.15e-6,"MEAN_MOTION_DDOT":0},{"OBJECT_NAME":"STARLINK-30966","OBJECT_ID":"2023-183T","EPOCH":"2025-12-17T20:52:07.645152","MEAN_MOTION":15.02539364,"ECCENTRICITY":0.00011685,"INCLINATION":43.0026,"RA_OF_ASC_NODE":128.1393,"ARG_OF_PERICENTER":275.3232,"MEAN_ANOMALY":84.7477,"EPHEMERIS_TYPE":0,"CLASSIFICATION_TYPE":"U","NORAD_CAT_ID":58454,"ELEMENT_SET_NO":999,"REV_AT_EPOCH":11440,"BSTAR":6.5864743e-5,"MEAN_MOTION_DOT":6.86e-6,"MEAN_MOTION_DDOT":0},{"OBJECT_NAME":"STARLINK-30935","OBJECT_ID":"2023-183U","EPOCH":"2025-12-17T17:11:54.339360","MEAN_MOTION":15.02533938,"ECCENTRICITY":6.325e-5,"INCLINATION":43.0028,"RA_OF_ASC_NODE":128.7108,"ARG_OF_PERICENTER":293.5851,"MEAN_ANOMALY":66.4925,"EPHEMERIS_TYPE":0,"CLASSIFICATION_TYPE":"U","NORAD_CAT_ID":58455,"ELEMENT_SET_NO":999,"REV_AT_EPOCH":11438,"BSTAR":-1.223408e-5,"MEAN_MOTION_DOT":-3.69e-6,"MEAN_MOTION_DDOT":0},{"OBJECT_NAME":"STARLINK-30960","OBJECT_ID":"2023-183V","EPOCH":"2025-12-18T04:44:44.926080","MEAN_MOTION":15.33494707,"ECCENTRICITY":0.00069022,"INCLINATION":42.9981,"RA_OF_ASC_NODE":60.8114,"ARG_OF_PERICENTER":44.4285,"MEAN_ANOMALY":315.7122,"EPHEMERIS_TYPE":0,"CLASSIFICATION_TYPE":"U","NORAD_CAT_ID":58456,"ELEMENT_SET_NO":999,"REV_AT_EPOCH":11522,"BSTAR":0.0032932739,"MEAN_MOTION_DOT":0.00110311,"MEAN_MOTION_DDOT":0},{"OBJECT_NAME":"STARLINK-30958","OBJECT_ID":"2023-183W","EPOCH":"2025-12-18T02:23:54.150720","MEAN_MOTION":15.0254207,"ECCENTRICITY":0.0001275,"INCLINATION":43.0025,"RA_OF_ASC_NODE":126.4329,"ARG_OF_PERICENTER":275.2421,"MEAN_ANOMALY":84.8276,"EPHEMERIS_TYPE":0,"CLASSIFICATION_TYPE":"U","NORAD_CAT_ID":58457,"ELEMENT_SET_NO":999,"REV_AT_EPOCH":11444,"BSTAR":6.2721639e-5,"MEAN_MOTION_DOT":6.44e-6,"MEAN_MOTION_DDOT":0},{"OBJECT_NAME":"STARLINK-30962","OBJECT_ID":"2023-183X","EPOCH":"2025-12-17T21:01:34.488768","MEAN_MOTION":15.02525227,"ECCENTRICITY":0.00014298,"INCLINATION":43.003,"RA_OF_ASC_NODE":127.3358,"ARG_OF_PERICENTER":262.8586,"MEAN_ANOMALY":97.2094,"EPHEMERIS_TYPE":0,"CLASSIFICATION_TYPE":"U","NORAD_CAT_ID":58458,"ELEMENT_SET_NO":999,"REV_AT_EPOCH":11441,"BSTAR":4.850716e-6,"MEAN_MOTION_DOT":-1.38e-6,"MEAN_MOTION_DDOT":0},{"OBJECT_NAME":"STARLINK-30977","OBJECT_ID":"2023-183Y","EPOCH":"2025-12-17T17:07:06.912480","MEAN_MOTION":15.02550962,"ECCENTRICITY":0.00012634,"INCLINATION":43.0028,"RA_OF_ASC_NODE":128.6859,"ARG_OF_PERICENTER":265.741,"MEAN_ANOMALY":94.3288,"EPHEMERIS_TYPE":0,"CLASSIFICATION_TYPE":"U","NORAD_CAT_ID":58459,"ELEMENT_SET_NO":999,"REV_AT_EPOCH":11438,"BSTAR":0.00012964629,"MEAN_MOTION_DOT":1.549e-5,"MEAN_MOTION_DDOT":0},{"OBJECT_NAME":"STARLINK-30947","OBJECT_ID":"2023-186A","EPOCH":"2025-12-17T19:51:49.749696","MEAN_MOTION":15.0253361,"ECCENTRICITY":0.00013378,"INCLINATION":43.0031,"RA_OF_ASC_NODE":152.5866,"ARG_OF_PERICENTER":266.2127,"MEAN_ANOMALY":93.8562,"EPHEMERIS_TYPE":0,"CLASSIFICATION_TYPE":"U","NORAD_CAT_ID":58473,"ELEMENT_SET_NO":999,"REV_AT_EPOCH":11353,"BSTAR":4.2944533e-5,"MEAN_MOTION_DOT":3.76e-6,"MEAN_MOTION_DDOT":0},{"OBJECT_NAME":"STARLINK-30995","OBJECT_ID":"2023-186B","EPOCH":"2025-12-18T08:00:01.999872","MEAN_MOTION":15.39303002,"ECCENTRICITY":0.0010631,"INCLINATION":42.9978,"RA_OF_ASC_NODE":346.0222,"ARG_OF_PERICENTER":121.9347,"MEAN_ANOMALY":145.1339,"EPHEMERIS_TYPE":0,"CLASSIFICATION_TYPE":"U","NORAD_CAT_ID":58474,"ELEMENT_SET_NO":999,"REV_AT_EPOCH":582,"BSTAR":0.0037040866,"MEAN_MOTION_DOT":0.00150649,"MEAN_MOTION_DDOT":0},{"OBJECT_NAME":"STARLINK-30941","OBJECT_ID":"2023-186C","EPOCH":"2025-12-18T03:40:52.705056","MEAN_MOTION":15.02531745,"ECCENTRICITY":0.00013092,"INCLINATION":43.0032,"RA_OF_ASC_NODE":150.7276,"ARG_OF_PERICENTER":264.432,"MEAN_ANOMALY":95.6373,"EPHEMERIS_TYPE":0,"CLASSIFICATION_TYPE":"U","NORAD_CAT_ID":58475,"ELEMENT_SET_NO":999,"REV_AT_EPOCH":11358,"BSTAR":-2.3333933e-5,"MEAN_MOTION_DOT":-5.19e-6,"MEAN_MOTION_DDOT":0}]
